{"type": "FeatureCollection", "features": [ {"type": "Feature", "properties": {"norad_id": 33825, "name": "COSMOS 2251 DEB", "group": "cosmos-2251-debris", "lat": 22.73894743898985, "lon": 10.96658569225846, "alt_km": 626.508371888287, "timestamp": "2025-12-24T22:42:22.426749+00:00", "meta": {"OBJECT_NAME": "COSMOS 2251 DEB", "OBJECT_ID": "1993-036BS", "EPOCH": "2025-12-24T04:58:49.647648", "MEAN_MOTION": 14.69870562, "ECCENTRICITY": 0.00851012, "INCLINATION": 73.9851, "RA_OF_ASC_NODE": 5.4885, "ARG_OF_PERICENTER": 329.8773, "MEAN_ANOMALY": 106.5518, "EPHEMERIS_TYPE": 0, "CLASSIFICATION_TYPE": "U", "NORAD_CAT_ID": 33825, "ELEMENT_SET_NO": 999, "REV_AT_EPOCH": 89048, "BSTAR": 0.0010381311, "MEAN_MOTION_DOT": 6.535e-05, "MEAN_MOTION_DDOT": 0}, "tle": {"line1": "1 33825U 93036BS  25358.20751907  .00006535  00000+0  10381-2 0  9999", "line2": "2 33825  73.9851   5.4885 0085101 329.8773 106.5518 14.69870562890483"}}, "geometry": {"type": "Point", "coordinates": [10.96658569225846, 22.73894743898985]}}, {"type": "Feature", "properties": {"norad_id": 33826, "name": "COSMOS 2251 DEB", "group": "cosmos-2251-debris", "lat": -19.490229201177417, "lon": -147.26853887269712, "alt_km": 764.3124294829049, "timestamp": "2025-12-24T22:42:22.426761+00:00", "meta": {"OBJECT_NAME": "COSMOS 2251 DEB", "OBJECT_ID": "1993-036BT", "EPOCH": "2025-12-24T03:51:44.169696", "MEAN_MOTION": 14.51770074, "ECCENTRICITY": 0.00825161, "INCLINATION": 74.0639, "RA_OF_ASC_NODE": 28.4031, "ARG_OF_PERICENTER": 68.902, "MEAN_ANOMALY": 348.7038, "EPHEMERIS_TYPE": 0, "CLASSIFICATION_TYPE": "U", "NORAD_CAT_ID": 33826, "ELEMENT_SET_NO": 999, "REV_AT_EPOCH": 87935, "BSTAR": 0.00045758749, "MEAN_MOTION_DOT": 1.894e-05, "MEAN_MOTION_DDOT": 0}, "tle": {"line1": "1 33826U 93036BT  25358.16092789  .00001894  00000+0  45759-3 0  9992", "line2": "2 33826  74.0639  28.4031 0082516  68.9020 348.7038 14.51770074879359"}}, "geometry": {"type": "Point", "coordinates": [-147.26853887269712, -19.490229201177417]}}, {"type": "Feature", "properties": {"norad_id": 33828, "name": "COSMOS 2251 DEB", "group": "cosmos-2251-debris", "lat": 46.28823863597733, "lon": 17.980057786637676, "alt_km": 758.7874891239708, "timestamp": "2025-12-24T22:42:22.426772+00:00", "meta": {"OBJECT_NAME": "COSMOS 2251 DEB", "OBJECT_ID": "1993-036BV", "EPOCH": "2025-12-24T01:11:07.257120", "MEAN_MOTION": 14.44363816, "ECCENTRICITY": 0.00295205, "INCLINATION": 74.0451, "RA_OF_ASC_NODE": 217.0592, "ARG_OF_PERICENTER": 288.2625, "MEAN_ANOMALY": 222.3509, "EPHEMERIS_TYPE": 0, "CLASSIFICATION_TYPE": "U", "NORAD_CAT_ID": 33828, "ELEMENT_SET_NO": 999, "REV_AT_EPOCH": 88476, "BSTAR": 0.00036716876, "MEAN_MOTION_DOT": 1.244e-05, "MEAN_MOTION_DDOT": 0}, "tle": {"line1": "1 33828U 93036BV  25358.04938955  .00001244  00000+0  36717-3 0  9998", "line2": "2 33828  74.0451 217.0592 0029520 288.2625 222.3509 14.44363816884760"}}, "geometry": {"type": "Point", "coordinates": [17.980057786637676, 46.28823863597733]}}, {"type": "Feature", "properties": {"norad_id": 33830, "name": "COSMOS 2251 DEB", "group": "cosmos-2251-debris", "lat": -1.7493741470655284, "lon": -154.0682136546636, "alt_km": 616.8214590869975, "timestamp": "2025-12-24T22:42:22.426784+00:00", "meta": {"OBJECT_NAME": "COSMOS 2251 DEB", "OBJECT_ID": "1993-036BX", "EPOCH": "2025-12-24T00:38:07.880640", "MEAN_MOTION": 14.77011696, "ECCENTRICITY": 0.00427323, "INCLINATION": 74.0307, "RA_OF_ASC_NODE": 208.2356, "ARG_OF_PERICENTER": 326.0139, "MEAN_ANOMALY": 184.2296, "EPHEMERIS_TYPE": 0, "CLASSIFICATION_TYPE": "U", "NORAD_CAT_ID": 33830, "ELEMENT_SET_NO": 999, "REV_AT_EPOCH": 89638, "BSTAR": 0.00075639433, "MEAN_MOTION_DOT": 5.383e-05, "MEAN_MOTION_DDOT": 0}, "tle": {"line1": "1 33830U 93036BX  25358.02648010  .00005383  00000+0  75639-3 0  9993", "line2": "2 33830  74.0307 208.2356 0042732 326.0139 184.2296 14.77011696896386"}}, "geometry": {"type": "Point", "coordinates": [-154.0682136546636, -1.7493741470655284]}}, {"type": "Feature", "properties": {"norad_id": 33832, "name": "COSMOS 2251 DEB", "group": "cosmos-2251-debris", "lat": 51.74291611631779, "lon": -152.05581227446729, "alt_km": 701.5361977249813, "timestamp": "2025-12-24T22:42:22.426794+00:00", "meta": {"OBJECT_NAME": "COSMOS 2251 DEB", "OBJECT_ID": "1993-036BZ", "EPOCH": "2025-12-23T22:19:32.963232", "MEAN_MOTION": 14.60771945, "ECCENTRICITY": 0.0024089, "INCLINATION": 74.0526, "RA_OF_ASC_NODE": 188.6209, "ARG_OF_PERICENTER": 217.5194, "MEAN_ANOMALY": 257.4349, "EPHEMERIS_TYPE": 0, "CLASSIFICATION_TYPE": "U", "NORAD_CAT_ID": 33832, "ELEMENT_SET_NO": 999, "REV_AT_EPOCH": 88588, "BSTAR": 0.0013829, "MEAN_MOTION_DOT": 6.754e-05, "MEAN_MOTION_DDOT": 0}, "tle": {"line1": "1 33832U 93036BZ  25357.93024263  .00006754  00000+0  13829-2 0  9997", "line2": "2 33832  74.0526 188.6209 0024089 217.5194 257.4349 14.60771945885886"}}, "geometry": {"type": "Point", "coordinates": [-152.05581227446729, 51.74291611631779]}}, {"type": "Feature", "properties": {"norad_id": 33835, "name": "COSMOS 2251 DEB", "group": "cosmos-2251-debris", "lat": -38.29531928435455, "lon": 64.7165511249401, "alt_km": 728.7769580823897, "timestamp": "2025-12-24T22:42:22.426804+00:00", "meta": {"OBJECT_NAME": "COSMOS 2251 DEB", "OBJECT_ID": "1993-036CC", "EPOCH": "2025-12-24T06:45:11.399616", "MEAN_MOTION": 14.62356139, "ECCENTRICITY": 0.0053801, "INCLINATION": 74.0572, "RA_OF_ASC_NODE": 79.0326, "ARG_OF_PERICENTER": 129.1696, "MEAN_ANOMALY": 293.003, "EPHEMERIS_TYPE": 0, "CLASSIFICATION_TYPE": "U", "NORAD_CAT_ID": 33835, "ELEMENT_SET_NO": 999, "REV_AT_EPOCH": 88958, "BSTAR": 0.0009368436, "MEAN_MOTION_DOT": 4.806e-05, "MEAN_MOTION_DDOT": 0}, "tle": {"line1": "1 33835U 93036CC  25358.28138194  .00004806  00000+0  93684-3 0  9992", "line2": "2 33835  74.0572  79.0326 0053801 129.1696 293.0030 14.62356139889582"}}, "geometry": {"type": "Point", "coordinates": [64.7165511249401, -38.29531928435455]}}, {"type": "Feature", "properties": {"norad_id": 33836, "name": "COSMOS 2251 DEB", "group": "cosmos-2251-debris", "lat": 26.91579270600396, "lon": -116.7587629477199, "alt_km": 619.4302544650664, "timestamp": "2025-12-24T22:42:22.426815+00:00", "meta": {"OBJECT_NAME": "COSMOS 2251 DEB", "OBJECT_ID": "1993-036CD", "EPOCH": "2025-12-23T03:29:31.689888", "MEAN_MOTION": 14.79785856, "ECCENTRICITY": 0.00227896, "INCLINATION": 73.9961, "RA_OF_ASC_NODE": 238.4155, "ARG_OF_PERICENTER": 87.573, "MEAN_ANOMALY": 72.5934, "EPHEMERIS_TYPE": 0, "CLASSIFICATION_TYPE": "U", "NORAD_CAT_ID": 33836, "ELEMENT_SET_NO": 999, "REV_AT_EPOCH": 64242, "BSTAR": 0.0012029969, "MEAN_MOTION_DOT": 9.073e-05, "MEAN_MOTION_DDOT": 0}, "tle": {"line1": "1 33836U 93036CD  25357.14550567  .00009073  00000+0  12030-2 0  9995", "line2": "2 33836  73.9961 238.4155 0022789  87.5730  72.5934 14.79785856642424"}}, "geometry": {"type": "Point", "coordinates": [-116.7587629477199, 26.91579270600396]}}, {"type": "Feature", "properties": {"norad_id": 33837, "name": "COSMOS 2251 DEB", "group": "cosmos-2251-debris", "lat": 6.184810253757918, "lon": -149.16241573489577, "alt_km": 720.0391961145497, "timestamp": "2025-12-24T22:42:22.426825+00:00", "meta": {"OBJECT_NAME": "COSMOS 2251 DEB", "OBJECT_ID": "1993-036CE", "EPOCH": "2025-12-23T11:09:00.922464", "MEAN_MOTION": 14.50722608, "ECCENTRICITY": 0.00358961, "INCLINATION": 74.0124, "RA_OF_ASC_NODE": 35.4061, "ARG_OF_PERICENTER": 255.4273, "MEAN_ANOMALY": 104.2905, "EPHEMERIS_TYPE": 0, "CLASSIFICATION_TYPE": "U", "NORAD_CAT_ID": 33837, "ELEMENT_SET_NO": 999, "REV_AT_EPOCH": 88951, "BSTAR": 0.00022621397, "MEAN_MOTION_DOT": 8.68e-06, "MEAN_MOTION_DDOT": 0}, "tle": {"line1": "1 33837U 93036CE  25357.46459401  .00000868  00000+0  22621-3 0  9997", "line2": "2 33837  74.0124  35.4061 0035896 255.4273 104.2905 14.50722608889519"}}, "geometry": {"type": "Point", "coordinates": [-149.16241573489577, 6.184810253757918]}}, {"type": "Feature", "properties": {"norad_id": 33838, "name": "COSMOS 2251 DEB", "group": "cosmos-2251-debris", "lat": -52.76712030606771, "lon": 104.82751043876432, "alt_km": 726.8664176222255, "timestamp": "2025-12-24T22:42:22.426836+00:00", "meta": {"OBJECT_NAME": "COSMOS 2251 DEB", "OBJECT_ID": "1993-036CF", "EPOCH": "2025-12-23T15:34:17.107104", "MEAN_MOTION": 14.48394985, "ECCENTRICITY": 0.00274788, "INCLINATION": 74.0364, "RA_OF_ASC_NODE": 129.3835, "ARG_OF_PERICENTER": 249.7787, "MEAN_ANOMALY": 132.5348, "EPHEMERIS_TYPE": 0, "CLASSIFICATION_TYPE": "U", "NORAD_CAT_ID": 33838, "ELEMENT_SET_NO": 999, "REV_AT_EPOCH": 88727, "BSTAR": 0.00039028626, "MEAN_MOTION_DOT": 1.441e-05, "MEAN_MOTION_DDOT": 0}, "tle": {"line1": "1 33838U 93036CF  25357.64880911  .00001441  00000+0  39029-3 0  9990", "line2": "2 33838  74.0364 129.3835 0027478 249.7787 132.5348 14.48394985887277"}}, "geometry": {"type": "Point", "coordinates": [104.82751043876432, -52.76712030606771]}}, {"type": "Feature", "properties": {"norad_id": 33839, "name": "COSMOS 2251 DEB", "group": "cosmos-2251-debris", "lat": -32.7982690773221, "lon": 13.654446744644424, "alt_km": 671.7147561431684, "timestamp": "2025-12-24T22:42:22.426860+00:00", "meta": {"OBJECT_NAME": "COSMOS 2251 DEB", "OBJECT_ID": "1993-036CG", "EPOCH": "2025-12-23T19:33:34.360128", "MEAN_MOTION": 14.64445826, "ECCENTRICITY": 0.00853576, "INCLINATION": 74.0374, "RA_OF_ASC_NODE": 185.1983, "ARG_OF_PERICENTER": 294.7494, "MEAN_ANOMALY": 79.6279, "EPHEMERIS_TYPE": 0, "CLASSIFICATION_TYPE": "U", "NORAD_CAT_ID": 33839, "ELEMENT_SET_NO": 999, "REV_AT_EPOCH": 89742, "BSTAR": 0.00019226296, "MEAN_MOTION_DOT": 1.039e-05, "MEAN_MOTION_DDOT": 0}, "tle": {"line1": "1 33839U 93036CG  25357.81498102  .00001039  00000+0  19226-3 0  9997", "line2": "2 33839  74.0374 185.1983 0085357 294.7494  79.6279 14.64445826897429"}}, "geometry": {"type": "Point", "coordinates": [13.654446744644424, -32.7982690773221]}}]}